DMSP 5D-3 F16 (USA 172) 
1 28054U 03048A   26177.15188843  .00000011  00000+0  29436-4 0  9994
2 28054  98.9888 201.0394 0008075 117.7202 322.4780 14.14483614170752
METEOSAT-9 (MSG-2)      
1 28912U 05049B   26176.81915795  .00000125  00000+0  00000+0 0  9993
2 28912   9.3807  54.0841 0001994 355.8110 204.6730  1.00277120  7086
DMSP 5D-3 F17 (USA 191) 
1 29522U 06050A   26177.15002792  .00000031  00000+0  38527-4 0  9992
2 29522  98.7378 183.5367 0010806  35.9970 324.1930 14.14993944 13694
FENGYUN 3A              
1 32958U 08026A   26176.71680390  .00000064  00000+0  50621-4 0  9996
2 32958  98.6884 117.3905 0009859 101.6563 258.5720 14.19572796936616
GOES 14                 
1 35491U 09033A   26177.02629251 -.00000312  00000+0  00000+0 0  9992
2 35491   1.7132  82.9457 0002226  18.3992 318.9543  1.00108583  6675
DMSP 5D-3 F18 (USA 210) 
1 35951U 09057A   26177.19270828  .00000244  00000+0  14964-3 0  9990
2 35951  98.9040 157.9423 0010170 221.1836 138.8571 14.14901705860861
EWS-G2 (GOES 15)        
1 36411U 10008A   26177.10788243  .00000030  00000+0  00000+0 0  9991
2 36411   1.3019  82.7321 0005299  42.7545 251.1517  1.00268017 59726
COMS 1                  
1 36744U 10032A   26176.96023205  .00000058  00000+0  00000+0 0  9990
2 36744   4.8275  75.2556 0011890  13.2572 209.7173  0.99166082 51175
FENGYUN 3B              
1 37214U 10059A   26177.21833664 -.00000118  00000+0 -37877-4 0  9995
2 37214  98.9620 223.2712 0022429 158.4566 283.1014 14.14841835808707
SUOMI NPP               
1 37849U 11061A   26177.15129644  .00000060  00000+0  49587-4 0  9997
2 37849  98.7954 117.9661 0001015 341.3576  18.7563 14.19519144759710
METEOSAT-10 (MSG-3)     
1 38552U 12035B   26177.02380453  .00000000  00000+0  00000+0 0  9990
2 38552   4.6924  60.9829 0001742   8.1161 213.8156  1.00268444 50948
METOP-B                 
1 38771U 12049A   26177.19967646  .00000090  00000+0  60883-4 0  9990
2 38771  98.6500 228.5189 0001670 353.2902   6.8253 14.21441599714544
INSAT-3D                
1 39216U 13038B   26176.97843213 -.00000330  00000+0  00000+0 0  9990
2 39216   1.9489  82.4409 0001129   0.0611 313.3627  1.00272220 47161
FENGYUN 3C              
1 39260U 13052A   26177.23136150  .00000090  00000+0  67109-4 0  9990
2 39260  98.4983 150.6910 0014709   2.3428 357.7813 14.15757065659842
METEOR-M 2              
1 40069U 14037A   26177.22590993  .00000089  00000+0  59832-4 0  9993
2 40069  98.5113 152.6440 0006356  21.7529 338.3917 14.21463611620603
HIMAWARI-8              
1 40267U 14060A   26176.99948779 -.00000265  00000+0  00000+0 0  9996
2 40267   0.0152 307.3027 0001539 150.6858 316.6040  1.00270734 42844
FENGYUN 2G              
1 40367U 14090A   26176.75853483 -.00000296  00000+0  00000+0 0  9995
2 40367   5.6611  72.7168 0003599 151.3751  62.5277  1.00269333 42081
METEOSAT-11 (MSG-4)     
1 40732U 15034A   26177.16851279  .00000070  00000+0  00000+0 0  9996
2 40732   3.2230  71.0535 0002261 347.2688 286.0801  1.00265880  7303
ELEKTRO-L 2             
1 41105U 15074A   26176.94987031 -.00000113  00000+0  00000+0 0  9995
2 41105   6.7170  70.4166 0000728 286.6211 244.4527  1.00271163 38595
SENTINEL-3A             
1 41335U 16011A   26177.19319132  .00000094  00000+0  56795-4 0  9995
2 41335  98.6246 244.4474 0001432  97.1017 263.0326 14.26734963539348
INSAT-3DR               
1 41752U 16054A   26177.10996244 -.00000066  00000+0  00000+0 0  9994
2 41752   0.1285  86.2314 0010079 187.0454 114.5183  1.00272380 35900
HIMAWARI-9              
1 41836U 16064A   26176.98059881  .00000000  00000+0  00000+0 0  9997
2 41836   0.0245  35.1510 0001217  79.8027 292.9390  1.00269096 35290
GOES 16                 
1 41866U 16071A   26177.22997073 -.00000080  00000+0  00000+0 0  9999
2 41866   0.3642  85.5308 0000560   4.8068 162.1132  1.00272055 35194
FENGYUN 4A              
1 41882U 16077A   26176.97721880 -.00000349  00000+0  00000+0 0  9993
2 41882   2.3456  80.1956 0008248 152.1167 157.2001  1.00264857 35017
CYGFM05                 
1 41884U 16078A   26176.45144720  .00024975  00000+0  33396-3 0  9999
2 41884  34.9556 205.8511 0008008 227.3909 132.6140 15.56995331530045
CYGFM04                 
1 41885U 16078B   26177.16311825  .00032687  00000+0  36084-3 0  9997
2 41885  34.9303 168.3700 0007280 269.6738  90.3153 15.61980901530406
CYGFM02                 
1 41886U 16078C   26177.14641016  .00039889  00000+0  38945-3 0  9993
2 41886  34.9384 162.7519 0008286 271.8784  88.0994 15.65051558530571
CYGFM01                 
1 41887U 16078D   26176.43652675  .00026106  00000+0  34012-3 0  9997
2 41887  34.9386 206.9400 0007735 221.6360 138.3776 15.57683122529995
CYGFM08                 
1 41888U 16078E   26176.44573674  .00031715  00000+0  37195-3 0  9997
2 41888  34.9414 186.2381 0009125 250.2663 109.7078 15.60404106530261
CYGFM07                 
1 41890U 16078G   26176.34040010  .00031809  00000+0  37193-3 0  9994
2 41890  34.9428 175.2742 0007667 263.1104  96.8749 15.60497342530276
CYGFM03                 
1 41891U 16078H   26176.37541706  .00031781  00000+0  37173-3 0  9993
2 41891  34.9384 176.9757 0007324 252.1288 107.8639 15.60491965530257
